{
  "type": "FeatureCollection",
  "features": [
    {
      "type": "Feature",
      "properties": {
        "norad_id": 24946,
        "name": "IRIDIUM 33",
        "group": "iridium-33-debris",
        "lat": 5.824909049373141,
        "lon": 65.97044137440152,
        "alt_km": 782.6851318317895,
        "timestamp": "2025-12-18T23:35:49.446947+00:00",
        "meta_object_name": "IRIDIUM 33",
        "meta_object_id": "1997-051C",
        "meta_epoch": "2025-12-18T15:12:08.915328",
        "meta_mean_motion": 14.35041483,
        "meta_eccentricity": 0.0007737,
        "meta_inclination": 86.3868,
        "meta_ra_of_asc_node": 65.7479,
        "meta_arg_of_pericenter": 180.2662,
        "meta_mean_anomaly": 179.8531,
        "meta_ephemeris_type": 0,
        "meta_classification_type": "U",
        "meta_norad_cat_id": 24946,
        "meta_element_set_no": 999,
        "meta_rev_at_epoch": 47919,
        "meta_bstar": 9.2049162e-05,
        "meta_mean_motion_dot": 2.82e-06,
        "meta_mean_motion_ddot": 0,
        "tle_line1": "1 24946U 97051C   25352.63343652  .00000282  00000+0  92049-4 0  9995",
        "tle_line2": "2 24946  86.3868  65.7479 0007737 180.2662 179.8531 14.35041483479190"
      },
      "geometry": {
        "type": "Point",
        "coordinates": [
          65.97044137440152,
          5.824909049373141
        ]
      }
    },
    {
      "type": "Feature",
      "properties": {
        "norad_id": 33773,
        "name": "IRIDIUM 33 DEB",
        "group": "iridium-33-debris",
        "lat": 32.23266216599627,
        "lon": -124.33085753766822,
        "alt_km": 737.1977491199714,
        "timestamp": "2025-12-18T23:35:49.447010+00:00",
        "meta_object_name": "IRIDIUM 33 DEB",
        "meta_object_id": "1997-051L",
        "meta_epoch": "2025-12-18T14:35:47.067360",
        "meta_mean_motion": 14.43269187,
        "meta_eccentricity": 0.00129706,
        "meta_inclination": 86.4005,
        "meta_ra_of_asc_node": 58.1027,
        "meta_arg_of_pericenter": 129.3163,
        "meta_mean_anomaly": 230.919,
        "meta_ephemeris_type": 0,
        "meta_classification_type": "U",
        "meta_norad_cat_id": 33773,
        "meta_element_set_no": 999,
        "meta_rev_at_epoch": 88432,
        "meta_bstar": 0.00022726511,
        "meta_mean_motion_dot": 7.85e-06,
        "meta_mean_motion_ddot": 0,
        "tle_line1": "1 33773U 97051L   25352.60818365  .00000785  00000+0  22727-3 0  9991",
        "tle_line2": "2 33773  86.4005  58.1027 0012970 129.3163 230.9190 14.43269187884329"
      },
      "geometry": {
        "type": "Point",
        "coordinates": [
          -124.33085753766822,
          32.23266216599627
        ]
      }
    },
    {
      "type": "Feature",
      "properties": {
        "norad_id": 33775,
        "name": "IRIDIUM 33 DEB",
        "group": "iridium-33-debris",
        "lat": -11.15857488716532,
        "lon": -132.39310274022586,
        "alt_km": 751.9624508273864,
        "timestamp": "2025-12-18T23:35:49.447028+00:00",
        "meta_object_name": "IRIDIUM 33 DEB",
        "meta_object_id": "1997-051N",
        "meta_epoch": "2025-12-18T15:09:18.283968",
        "meta_mean_motion": 14.41480669,
        "meta_eccentricity": 0.00148625,
        "meta_inclination": 86.3631,
        "meta_ra_of_asc_node": 47.0382,
        "meta_arg_of_pericenter": 136.8807,
        "meta_mean_anomaly": 29.8565,
        "meta_ephemeris_type": 0,
        "meta_classification_type": "U",
        "meta_norad_cat_id": 33775,
        "meta_element_set_no": 999,
        "meta_rev_at_epoch": 88225,
        "meta_bstar": 0.00024003689,
        "meta_mean_motion_dot": 8e-06,
        "meta_mean_motion_ddot": 0,
        "tle_line1": "1 33775U 97051N   25352.63146162  .00000800  00000+0  24004-3 0  9993",
        "tle_line2": "2 33775  86.3631  47.0382 0014862 136.8807  29.8565 14.41480669882255"
      },
      "geometry": {
        "type": "Point",
        "coordinates": [
          -132.39310274022586,
          -11.15857488716532
        ]
      }
    },
    {
      "type": "Feature",
      "properties": {
        "norad_id": 33776,
        "name": "IRIDIUM 33 DEB",
        "group": "iridium-33-debris",
        "lat": -12.084498522710213,
        "lon": 77.38264385913355,
        "alt_km": 779.5220544814974,
        "timestamp": "2025-12-18T23:35:49.447044+00:00",
        "meta_object_name": "IRIDIUM 33 DEB",
        "meta_object_id": "1997-051P",
        "meta_epoch": "2025-12-18T15:49:59.503008",
        "meta_mean_motion": 14.38245294,
        "meta_eccentricity": 0.00150355,
        "meta_inclination": 86.4036,
        "meta_ra_of_asc_node": 78.29,
        "meta_arg_of_pericenter": 171.2358,
        "meta_mean_anomaly": 302.8778,
        "meta_ephemeris_type": 0,
        "meta_classification_type": "U",
        "meta_norad_cat_id": 33776,
        "meta_element_set_no": 999,
        "meta_rev_at_epoch": 88167,
        "meta_bstar": 0.0002151729,
        "meta_mean_motion_dot": 6.74e-06,
        "meta_mean_motion_ddot": 0,
        "tle_line1": "1 33776U 97051P   25352.65971647  .00000674  00000+0  21517-3 0  9995",
        "tle_line2": "2 33776  86.4036  78.2900 0015035 171.2358 302.8778 14.38245294881679"
      },
      "geometry": {
        "type": "Point",
        "coordinates": [
          77.38264385913355,
          -12.084498522710213
        ]
      }
    },
    {
      "type": "Feature",
      "properties": {
        "norad_id": 33777,
        "name": "IRIDIUM 33 DEB",
        "group": "iridium-33-debris",
        "lat": 13.759719959175017,
        "lon": -148.40102978703808,
        "alt_km": 706.1190744700025,
        "timestamp": "2025-12-18T23:35:49.447057+00:00",
        "meta_object_name": "IRIDIUM 33 DEB",
        "meta_object_id": "1997-051Q",
        "meta_epoch": "2025-12-18T14:35:13.054272",
        "meta_mean_motion": 14.55654018,
        "meta_eccentricity": 0.00055986,
        "meta_inclination": 86.378,
        "meta_ra_of_asc_node": 32.651,
        "meta_arg_of_pericenter": 222.9742,
        "meta_mean_anomaly": 137.1029,
        "meta_ephemeris_type": 0,
        "meta_classification_type": "U",
        "meta_norad_cat_id": 33777,
        "meta_element_set_no": 999,
        "meta_rev_at_epoch": 88619,
        "meta_bstar": 0.00059855327,
        "meta_mean_motion_dot": 2.634e-05,
        "meta_mean_motion_ddot": 0,
        "tle_line1": "1 33777U 97051Q   25352.60778998  .00002634  00000+0  59855-3 0  9999",
        "tle_line2": "2 33777  86.3780  32.6510 0005598 222.9742 137.1029 14.55654018886197"
      },
      "geometry": {
        "type": "Point",
        "coordinates": [
          -148.40102978703808,
          13.759719959175017
        ]
      }
    },
    {
      "type": "Feature",
      "properties": {
        "norad_id": 33850,
        "name": "IRIDIUM 33 DEB",
        "group": "iridium-33-debris",
        "lat": -7.248473642002791,
        "lon": -152.03870995853015,
        "alt_km": 748.8712080418272,
        "timestamp": "2025-12-18T23:35:49.447069+00:00",
        "meta_object_name": "IRIDIUM 33 DEB",
        "meta_object_id": "1997-051T",
        "meta_epoch": "2025-12-18T14:59:17.983680",
        "meta_mean_motion": 14.42158968,
        "meta_eccentricity": 0.00127915,
        "meta_inclination": 86.3413,
        "meta_ra_of_asc_node": 27.6492,
        "meta_arg_of_pericenter": 143.3422,
        "meta_mean_anomaly": 342.6058,
        "meta_ephemeris_type": 0,
        "meta_classification_type": "U",
        "meta_norad_cat_id": 33850,
        "meta_element_set_no": 999,
        "meta_rev_at_epoch": 88237,
        "meta_bstar": 0.00026637841,
        "meta_mean_motion_dot": 8.97e-06,
        "meta_mean_motion_ddot": 0,
        "tle_line1": "1 33850U 97051T   25352.62451370  .00000897  00000+0  26638-3 0  9997",
        "tle_line2": "2 33850  86.3413  27.6492 0012791 143.3422 342.6058 14.42158968882379"
      },
      "geometry": {
        "type": "Point",
        "coordinates": [
          -152.03870995853015,
          -7.248473642002791
        ]
      }
    },
    {
      "type": "Feature",
      "properties": {
        "norad_id": 33853,
        "name": "IRIDIUM 33 DEB",
        "group": "iridium-33-debris",
        "lat": -34.3223296291807,
        "lon": -15.66484587652389,
        "alt_km": 949.8163354974431,
        "timestamp": "2025-12-18T23:35:49.447083+00:00",
        "meta_object_name": "IRIDIUM 33 DEB",
        "meta_object_id": "1997-051W",
        "meta_epoch": "2025-12-18T10:46:35.462784",
        "meta_mean_motion": 13.9909411,
        "meta_eccentricity": 0.02071281,
        "meta_inclination": 85.9998,
        "meta_ra_of_asc_node": 347.3075,
        "meta_arg_of_pericenter": 218.1719,
        "meta_mean_anomaly": 296.3218,
        "meta_ephemeris_type": 0,
        "meta_classification_type": "U",
        "meta_norad_cat_id": 33853,
        "meta_element_set_no": 999,
        "meta_rev_at_epoch": 85425,
        "meta_bstar": 0.0013854201,
        "meta_mean_motion_dot": 2.426e-05,
        "meta_mean_motion_ddot": 0,
        "tle_line1": "1 33853U 97051W   25352.44902156  .00002426  00000+0  13854-2 0  9998",
        "tle_line2": "2 33853  85.9998 347.3075 0207128 218.1719 296.3218 13.99094110854252"
      },
      "geometry": {
        "type": "Point",
        "coordinates": [
          -15.66484587652389,
          -34.3223296291807
        ]
      }
    }
  ]
}